CCSDS_OMM_VERS = 2.0
CREATION_DATE  = 
ORIGINATOR     = 

OBJECT_NAME    = STARLINK-36247
OBJECT_ID      = 2026-054P
CENTER_NAME    = EARTH
REF_FRAME      = TEME
TIME_SYSTEM    = UTC
MEAN_ELEMENT_THEORY = SGP/SGP4

EPOCH          = 2026-03-30T13:05:37.406976
MEAN_MOTION    = 15.80986673
ECCENTRICITY   = .00013737
INCLINATION    = 53.1593
RA_OF_ASC_NODE = 208.0475
ARG_OF_PERICENTER = 69.4392
MEAN_ANOMALY   = 290.6778

EPHEMERIS_TYPE = 0
CLASSIFICATION_TYPE = U
NORAD_CAT_ID   = 68245
ELEMENT_SET_NO = 999
REV_AT_EPOCH   = 207
BSTAR          = .15875089E-2
MEAN_MOTION_DOT = .326466E-2
MEAN_MOTION_DDOT = 0

CCSDS_OMM_VERS = 2.0
CREATION_DATE  = 
ORIGINATOR     = 

OBJECT_NAME    = STARLINK-37043
OBJECT_ID      = 2026-054Q
CENTER_NAME    = EARTH
REF_FRAME      = TEME
TIME_SYSTEM    = UTC
MEAN_ELEMENT_THEORY = SGP/SGP4

EPOCH          = 2026-03-30T14:34:29.797248
MEAN_MOTION    = 15.80979489
ECCENTRICITY   = .00012532
INCLINATION    = 53.1598
RA_OF_ASC_NODE = 207.7204
ARG_OF_PERICENTER = 85.8648
MEAN_ANOMALY   = 274.2518

EPHEMERIS_TYPE = 0
CLASSIFICATION_TYPE = U
NORAD_CAT_ID   = 68246
ELEMENT_SET_NO = 999
REV_AT_EPOCH   = 208
BSTAR          = .1295531E-2
MEAN_MOTION_DOT = .264269E-2
MEAN_MOTION_DDOT = 0

CCSDS_OMM_VERS = 2.0
CREATION_DATE  = 
ORIGINATOR     = 

OBJECT_NAME    = STARLINK-37044
OBJECT_ID      = 2026-054R
CENTER_NAME    = EARTH
REF_FRAME      = TEME
TIME_SYSTEM    = UTC
MEAN_ELEMENT_THEORY = SGP/SGP4

EPOCH          = 2026-03-30T13:02:23.060544
MEAN_MOTION    = 15.80992114
ECCENTRICITY   = .00010989
INCLINATION    = 53.1594
RA_OF_ASC_NODE = 208.0318
ARG_OF_PERICENTER = 64.6591
MEAN_ANOMALY   = 295.4546

EPHEMERIS_TYPE = 0
CLASSIFICATION_TYPE = U
NORAD_CAT_ID   = 68247
ELEMENT_SET_NO = 999
REV_AT_EPOCH   = 207
BSTAR          = .17568747E-2
MEAN_MOTION_DOT = .36302E-2
MEAN_MOTION_DDOT = 0

CCSDS_OMM_VERS = 2.0
CREATION_DATE  = 
ORIGINATOR     = 

OBJECT_NAME    = STARLINK-36997
OBJECT_ID      = 2026-054S
CENTER_NAME    = EARTH
REF_FRAME      = TEME
TIME_SYSTEM    = UTC
MEAN_ELEMENT_THEORY = SGP/SGP4

EPOCH          = 2026-03-30T14:00:03.000384
MEAN_MOTION    = 15.75242036
ECCENTRICITY   = .00010816
INCLINATION    = 53.1601
RA_OF_ASC_NODE = 207.9047
ARG_OF_PERICENTER = 76.1616
MEAN_ANOMALY   = 116.5472

EPHEMERIS_TYPE = 0
CLASSIFICATION_TYPE = U
NORAD_CAT_ID   = 68248
ELEMENT_SET_NO = 999
REV_AT_EPOCH   = 327
BSTAR          = .46860527E-4
MEAN_MOTION_DOT = .655E-4
MEAN_MOTION_DDOT = 0

CCSDS_OMM_VERS = 2.0
CREATION_DATE  = 
ORIGINATOR     = 

OBJECT_NAME    = STARLINK-37141
OBJECT_ID      = 2026-054T
CENTER_NAME    = EARTH
REF_FRAME      = TEME
TIME_SYSTEM    = UTC
MEAN_ELEMENT_THEORY = SGP/SGP4

EPOCH          = 2026-03-30T14:31:15.493152
MEAN_MOTION    = 15.81008620
ECCENTRICITY   = .0001202
INCLINATION    = 53.1598
RA_OF_ASC_NODE = 207.7058
ARG_OF_PERICENTER = 85.1723
MEAN_ANOMALY   = 274.9437

EPHEMERIS_TYPE = 0
CLASSIFICATION_TYPE = U
NORAD_CAT_ID   = 68249
ELEMENT_SET_NO = 999
REV_AT_EPOCH   = 208
BSTAR          = .15691437E-2
MEAN_MOTION_DOT = .322873E-2
MEAN_MOTION_DDOT = 0

CCSDS_OMM_VERS = 2.0
CREATION_DATE  = 
ORIGINATOR     = 

OBJECT_NAME    = STARLINK-37087
OBJECT_ID      = 2026-054U
CENTER_NAME    = EARTH
REF_FRAME      = TEME
TIME_SYSTEM    = UTC
MEAN_ELEMENT_THEORY = SGP/SGP4

EPOCH          = 2026-03-30T14:30:54.775296
MEAN_MOTION    = 15.78698463
ECCENTRICITY   = .00008502
INCLINATION    = 53.1595
RA_OF_ASC_NODE = 207.7040
ARG_OF_PERICENTER = 88.9145
MEAN_ANOMALY   = 271.1975

EPHEMERIS_TYPE = 0
CLASSIFICATION_TYPE = U
NORAD_CAT_ID   = 68250
ELEMENT_SET_NO = 999
REV_AT_EPOCH   = 208
BSTAR          = -.57397244E-2
MEAN_MOTION_DOT = -.922192E-2
MEAN_MOTION_DDOT = 0

CCSDS_OMM_VERS = 2.0
CREATION_DATE  = 
ORIGINATOR     = 

OBJECT_NAME    = STARLINK-36274
OBJECT_ID      = 2026-054V
CENTER_NAME    = EARTH
REF_FRAME      = TEME
TIME_SYSTEM    = UTC
MEAN_ELEMENT_THEORY = SGP/SGP4

EPOCH          = 2026-03-30T14:00:03.000384
MEAN_MOTION    = 15.75207378
ECCENTRICITY   = .00012356
INCLINATION    = 53.1598
RA_OF_ASC_NODE = 207.8560
ARG_OF_PERICENTER = 76.9573
MEAN_ANOMALY   = 139.6624

EPHEMERIS_TYPE = 0
CLASSIFICATION_TYPE = U
NORAD_CAT_ID   = 68251
ELEMENT_SET_NO = 999
REV_AT_EPOCH   = 331
BSTAR          = .45993341E-3
MEAN_MOTION_DOT = .70353E-3
MEAN_MOTION_DDOT = 0

CCSDS_OMM_VERS = 2.0
CREATION_DATE  = 
ORIGINATOR     = 

OBJECT_NAME    = STARLINK-37085
OBJECT_ID      = 2026-054W
CENTER_NAME    = EARTH
REF_FRAME      = TEME
TIME_SYSTEM    = UTC
MEAN_ELEMENT_THEORY = SGP/SGP4

EPOCH          = 2026-03-30T14:28:01.145856
MEAN_MOTION    = 15.80958314
ECCENTRICITY   = .00012258
INCLINATION    = 53.1597
RA_OF_ASC_NODE = 207.6900
ARG_OF_PERICENTER = 75.9419
MEAN_ANOMALY   = 284.1740

EPHEMERIS_TYPE = 0
CLASSIFICATION_TYPE = U
NORAD_CAT_ID   = 68252
ELEMENT_SET_NO = 999
REV_AT_EPOCH   = 208
BSTAR          = .12153764E-2
MEAN_MOTION_DOT = .247137E-2
MEAN_MOTION_DDOT = 0

CCSDS_OMM_VERS = 2.0
CREATION_DATE  = 
ORIGINATOR     = 

OBJECT_NAME    = STARLINK-37086
OBJECT_ID      = 2026-054X
CENTER_NAME    = EARTH
REF_FRAME      = TEME
TIME_SYSTEM    = UTC
MEAN_ELEMENT_THEORY = SGP/SGP4

EPOCH          = 2026-03-30T14:26:56.083200
MEAN_MOTION    = 15.80970267
ECCENTRICITY   = .00010534
INCLINATION    = 53.1595
RA_OF_ASC_NODE = 207.6851
ARG_OF_PERICENTER = 105.0234
MEAN_ANOMALY   = 255.0905

EPHEMERIS_TYPE = 0
CLASSIFICATION_TYPE = U
NORAD_CAT_ID   = 68253
ELEMENT_SET_NO = 999
REV_AT_EPOCH   = 208
BSTAR          = .12406128E-2
MEAN_MOTION_DOT = .252584E-2
MEAN_MOTION_DDOT = 0

CCSDS_OMM_VERS = 2.0
CREATION_DATE  = 
ORIGINATOR     = 

OBJECT_NAME    = STARLINK-37084
OBJECT_ID      = 2026-054Y
CENTER_NAME    = EARTH
REF_FRAME      = TEME
TIME_SYSTEM    = UTC
MEAN_ELEMENT_THEORY = SGP/SGP4

EPOCH          = 2026-03-30T14:00:03.000384
MEAN_MOTION    = 15.80902483
ECCENTRICITY   = .00010493
INCLINATION    = 53.1590
RA_OF_ASC_NODE = 207.7624
ARG_OF_PERICENTER = 84.0444
MEAN_ANOMALY   = 178.2702

EPHEMERIS_TYPE = 0
CLASSIFICATION_TYPE = U
NORAD_CAT_ID   = 68254
ELEMENT_SET_NO = 999
REV_AT_EPOCH   = 327
BSTAR          = -.15580331E-3
MEAN_MOTION_DOT = -.31379E-3
MEAN_MOTION_DDOT = 0

CCSDS_OMM_VERS = 2.0
CREATION_DATE  = 
ORIGINATOR     = 

OBJECT_NAME    = STARLINK-37075
OBJECT_ID      = 2026-054Z
CENTER_NAME    = EARTH
REF_FRAME      = TEME
TIME_SYSTEM    = UTC
MEAN_ELEMENT_THEORY = SGP/SGP4

EPOCH          = 2026-03-30T12:54:49.440672
MEAN_MOTION    = 15.80949154
ECCENTRICITY   = .0001129
INCLINATION    = 53.1594
RA_OF_ASC_NODE = 207.9971
ARG_OF_PERICENTER = 95.4972
MEAN_ANOMALY   = 264.6180

EPHEMERIS_TYPE = 0
CLASSIFICATION_TYPE = U
NORAD_CAT_ID   = 68255
ELEMENT_SET_NO = 999
REV_AT_EPOCH   = 207
BSTAR          = .13098317E-2
MEAN_MOTION_DOT = .266904E-2
MEAN_MOTION_DDOT = 0

CCSDS_OMM_VERS = 2.0
CREATION_DATE  = 
ORIGINATOR     = 

OBJECT_NAME    = STARLINK-36333
OBJECT_ID      = 2026-054AA
CENTER_NAME    = EARTH
REF_FRAME      = TEME
TIME_SYSTEM    = UTC
MEAN_ELEMENT_THEORY = SGP/SGP4

EPOCH          = 2026-03-30T14:00:03.000384
MEAN_MOTION    = 15.80896754
ECCENTRICITY   = .00013046
INCLINATION    = 53.1593
RA_OF_ASC_NODE = 207.7536
ARG_OF_PERICENTER = 67.2624
MEAN_ANOMALY   = 199.3286

EPHEMERIS_TYPE = 0
CLASSIFICATION_TYPE = U
NORAD_CAT_ID   = 68256
ELEMENT_SET_NO = 999
REV_AT_EPOCH   = 331
BSTAR          = -.13117689E-3
MEAN_MOTION_DOT = -.26539E-3
MEAN_MOTION_DDOT = 0

