STARLINK-36247          
1 68245U 26054P   26089.54557184  .00326466  00000+0  15875-2 0  9990
2 68245  53.1593 208.0475 0001373  69.4392 290.6778 15.80986673  2077
STARLINK-37043          
1 68246U 26054Q   26089.60728932  .00264269  00000+0  12955-2 0  9997
2 68246  53.1598 207.7204 0001253  85.8648 274.2518 15.80979489  2080
STARLINK-37044          
1 68247U 26054R   26089.54332246  .00363020  00000+0  17569-2 0  9991
2 68247  53.1594 208.0318 0001098  64.6591 295.4546 15.80992114  2071
STARLINK-36997          
1 68248U 26054S   26089.58336806  .00006550  00000+0  46861-4 0  9993
2 68248  53.1601 207.9047 0001081  76.1616 116.5472 15.75242036  3275
STARLINK-37141          
1 68249U 26054T   26089.60504043  .00322873  00000+0  15691-2 0  9991
2 68249  53.1598 207.7058 0001202  85.1723 274.9437 15.81008620  2089
STARLINK-37087          
1 68250U 26054U   26089.60480064 -.00922192  00000+0 -57397-2 0  9990
2 68250  53.1595 207.7040 0000850  88.9145 271.1975 15.78698463  2088
STARLINK-36274          
1 68251U 26054V   26089.58336806  .00070353  00000+0  45993-3 0  9993
2 68251  53.1598 207.8560 0001235  76.9573 139.6624 15.75207378  3314
STARLINK-37085          
1 68252U 26054W   26089.60279104  .00247137  00000+0  12154-2 0  9992
2 68252  53.1597 207.6900 0001225  75.9419 284.1740 15.80958314  2084
STARLINK-37086          
1 68253U 26054X   26089.60203800  .00252584  00000+0  12406-2 0  9995
2 68253  53.1595 207.6851 0001053 105.0234 255.0905 15.80970267  2088
STARLINK-37084          
1 68254U 26054Y   26089.58336806 -.00031379  00000+0 -15580-3 0  9992
2 68254  53.1590 207.7624 0001049  84.0444 178.2702 15.80902483  3275
STARLINK-37075          
1 68255U 26054Z   26089.53807223  .00266904  00000+0  13098-2 0  9997
2 68255  53.1594 207.9971 0001129  95.4972 264.6180 15.80949154  2071
STARLINK-36333          
1 68256U 26054AA  26089.58336806 -.00026539  00000+0 -13118-3 0  9991
2 68256  53.1593 207.7536 0001304  67.2624 199.3286 15.80896754  3318
